ISS OBJECT XW           
1 66910U 98067XW  26052.30757886  .00116662  00000+0  11873-2 0  9994
2 66910  51.6256 148.7568 0003669   7.5072 352.5977 15.64262584 12614
ISS OBJECT XX           
1 66911U 98067XX  26052.29962827  .00179047  00000+0  15393-2 0  9993
2 66911  51.6237 147.9479 0005625 359.3320   0.7668 15.68221249 12610
ISS OBJECT XY           
1 66912U 98067XY  26052.26809924  .00083466  00000+0  98238-3 0  9998
2 66912  51.6292 150.0049 0001771  11.1610 348.9422 15.60682171 12581
ISS OBJECT XZ           
1 67683U 98067XZ  26052.29866950  .00038470  00000+0  66701-3 0  9994
2 67683  51.6313 153.2064 0010073 131.4017 228.7839 15.50445364  2244
GXIBA-1                 
1 67684U 98067YA  26051.58224804  .00063461  00000+0  10470-2 0  9991
2 67684  51.6312 156.6723 0011811 122.4211 237.7923 15.51598585  2137
CORAL                   
1 67685U 98067YB  26052.29719817  .00041994  00000+0  72113-3 0  9994
2 67685  51.6309 153.1959 0012048 128.0063 232.2015 15.50652285  2248
ISS OBJECT YC           
1 67686U 98067YC  26052.29570359  .00049817  00000+0  84691-3 0  9997
2 67686  51.6315 153.1862 0007725  99.5470 260.6392 15.50905757  2247
LEOPARD                 
1 67687U 98067YD  26052.29780887  .00039753  00000+0  68646-3 0  9997
2 67687  51.6314 153.2007 0007806 102.1661 258.0203 15.50566387  2167
ISS OBJECT YE           
1 67688U 98067YE  26052.29631605  .00046852  00000+0  80053-3 0  9995
2 67688  51.6323 153.1914 0007710 100.0115 260.1745 15.50790998  2161
CREW DRAGON 12          
1 67796U 26031A   26052.24890538  .00011241  00000+0  21782-3 0  9992
2 67796  51.6322 153.6219 0008522 117.8535 242.3318 15.48178501553758
